NAVSTAR 77 (USA 289)    
1 43873U 18109A   24191.04813380 -.00000004  00000+0  00000+0 0  9991
2 43873  55.3048 120.1644 0029217 194.5392 179.0457  2.00557145 40875
